NORAD_CAT_ID,OBJECT_NAME,OBJECT_TYPE,EPOCH,MEAN_MOTION,ECCENTRICITY,INCLINATION,RA_OF_ASC_NODE,ARG_OF_PERICENTER,MEAN_ANOMALY,BSTAR,MEAN_MOTION_DOT,MEAN_MOTION_DDOT,TLE_LINE0,TLE_LINE1,TLE_LINE2,SEMIMAJOR_AXIS,PERIOD,APOGEE,PERIGEE,DECAYED
54002.0,STARLINK-5109,PAYLOAD,2023-08-28 03:43:56,15.08841539,0.0001392,53.2168,34.2539,89.9367,270.1785,-0.00012795,-2.324e-05,0.0,0 STARLINK-5109,1 54002U 22125AQ  23240.15551910 -.00002324  00000-0 -12795-3 0  9991,2 54002  53.2168  34.2539 0001392  89.9367 270.1785 15.08841539 50088,6917.876,95.437,540.704,538.778,0.0
54002.0,STARLINK-5109,PAYLOAD,2023-08-28 16:27:01,15.088461,0.00013,53.2164,31.875,86.3555,273.7586,-2.7475e-06,-3.32e-06,0.0,0 STARLINK-5109,1 54002U 22125AQ  23240.68543454 -.00000332  00000-0 -27475-5 0  9993,2 54002  53.2164  31.8750 0001300  86.3555 273.7586 15.08846100 50112,6917.862,95.437,540.626,538.827,0.0
54002.0,STARLINK-5109,PAYLOAD,2023-08-29 16:17:48,15.08845027,0.0001473,53.2172,27.4124,91.1033,269.0127,0.00017872,2.558e-05,0.0,0 STARLINK-5109,1 54002U 22125AQ  23241.67903560  .00002558  00000-0  17872-3 0  9999,2 54002  53.2172  27.4124 0001473  91.1033 269.0127 15.08845027 50265,6917.865,95.437,540.749,538.711,0.0
54002.0,STARLINK-5109,PAYLOAD,2023-08-29 21:03:57,15.08849758,0.0001551,53.2178,26.5202,94.542,265.5749,0.00032112,4.828e-05,0.0,0 STARLINK-5109,1 54002U 22125AQ  23241.87775408  .00004828  00000-0  32112-3 0  9995,2 54002  53.2178  26.5202 0001551  94.5420 265.5749 15.08849758 50347,6917.851,95.437,540.789,538.643,0.0
54002.0,STARLINK-5109,PAYLOAD,2023-08-30 09:47:03,15.08840588,0.0001866,53.2158,24.142,95.9884,264.1321,0.00016098,2.275e-05,0.0,0 STARLINK-5109,1 54002U 22125AQ  23242.40767802  .00002275  00000-0  16098-3 0  9993,2 54002  53.2158  24.1420 0001866  95.9884 264.1321 15.08840588 50421,6917.879,95.438,541.034,538.453,0.0
54002.0,STARLINK-5109,PAYLOAD,2023-08-30 16:08:35,15.08845347,0.0001617,53.2178,22.9536,95.6311,264.4866,0.00021612,3.154e-05,0.0,0 STARLINK-5109,1 54002U 22125AQ  23242.67263604  .00003154  00000-0  21612-3 0  9998,2 54002  53.2178  22.9536 0001617  95.6311 264.4866 15.08845347 50417,6917.864,95.437,540.848,538.61,0.0
54002.0,STARLINK-5109,PAYLOAD,2023-08-30 20:54:44,15.08851838,0.0001588,53.2183,22.0618,94.4345,265.6829,0.00031475,4.726e-05,0.0,0 STARLINK-5109,1 54002U 22125AQ  23242.87135297  .00004726  00000-0  31475-3 0  9990,2 54002  53.2183  22.0618 0001588  94.4345 265.6829 15.08851838 50498,6917.844,95.437,540.808,538.611,0.0
54002.0,STARLINK-5109,PAYLOAD,2023-08-31 09:37:50,15.08839342,0.0001693,53.2184,19.6825,92.887,267.2316,9.2858e-05,1.19e-05,0.0,0 STARLINK-5109,1 54002U 22125AQ  23243.40127888  .00001190  00000-0  92858-4 0  9992,2 54002  53.2184  19.6825 0001693  92.8870 267.2316 15.08839342 50577,6917.882,95.438,540.919,538.576,0.0
54002.0,STARLINK-5109,PAYLOAD,2023-08-31 12:48:36,15.08839328,0.0001484,53.2178,19.0875,93.7046,266.4116,9.5391e-05,1.23e-05,0.0,0 STARLINK-5109,1 54002U 22125AQ  23243.53375891  .00001230  00000-0  95391-4 0  9995,2 54002  53.2178  19.0875 0001484  93.7046 266.4116 15.08839328 50542,6917.882,95.438,540.774,538.721,0.0
54002.0,STARLINK-5109,PAYLOAD,2023-09-01 11:04:00,15.0883873,0.0001366,53.2166,14.9279,91.4054,268.7094,0.00013216,1.816e-05,0.0,0 STARLINK-5109,1 54002U 22125AQ  23244.46112134  .00001816  00000-0  13216-3 0  9992,2 54002  53.2166  14.9279 0001366  91.4054 268.7094 15.08838730 50685,6917.884,95.438,540.694,538.804,0.0
54002.0,STARLINK-5109,PAYLOAD,2023-09-01 15:50:10,15.08842218,0.0001018,53.2183,14.035,86.8733,273.2376,0.00018359,2.635e-05,0.0,0 STARLINK-5109,1 54002U 22125AQ  23244.65983936  .00002635  00000-0  18359-3 0  9992,2 54002  53.2183  14.0350 0001018  86.8733 273.2376 15.08842218 50760,6917.874,95.437,540.443,539.034,0.0
54002.0,STARLINK-5109,PAYLOAD,2023-09-02 12:30:10,15.08844764,0.000116,53.2166,10.1704,93.7697,266.3428,0.00017646,2.522e-05,0.0,0 STARLINK-5109,1 54002U 22125AQ  23245.52095882  .00002522  00000-0  17646-3 0  9996,2 54002  53.2166  10.1704 0001160  93.7697 266.3428 15.08844764 50843,6917.866,95.437,540.533,538.928,0.0
54002.0,STARLINK-5109,PAYLOAD,2023-09-02 15:40:57,15.08846229,0.0001207,53.2165,9.5754,96.3183,263.7947,0.00021728,3.172e-05,0.0,0 STARLINK-5109,1 54002U 22125AQ  23245.65343808  .00003172  00000-0  21728-3 0  9992,2 54002  53.2165   9.5754 0001207  96.3183 263.7947 15.08846229 50867,6917.861,95.437,540.561,538.891,0.0
54002.0,STARLINK-5109,PAYLOAD,2023-09-03 01:13:15,15.08848842,0.0001146,53.2169,7.7911,97.8213,262.2909,0.0004435,6.779e-05,0.0,0 STARLINK-5109,1 54002U 22125AQ  23246.05087613  .00006779  00000-0  44350-3 0  9998,2 54002  53.2169   7.7911 0001146  97.8213 262.2909 15.08848842 50975,6917.853,95.437,540.511,538.926,0.0
54002.0,STARLINK-5109,PAYLOAD,2023-09-03 10:45:34,15.08851799,0.0001194,53.2169,6.0067,93.673,266.4399,0.00015435,2.17e-05,0.0,0 STARLINK-5109,1 54002U 22125AQ  23246.44831212  .00002170  00000-0  15435-3 0  9996,2 54002  53.2169   6.0067 0001194  93.6730 266.4399 15.08851799 50985,6917.844,95.437,540.535,538.883,0.0
54002.0,STARLINK-5109,PAYLOAD,2023-09-04 01:04:02,15.08846342,0.0001113,53.217,3.3302,95.2815,264.8304,8.1144e-05,1.004e-05,0.0,0 STARLINK-5109,1 54002U 22125AQ  23247.04447165  .00001004  00000-0  81144-4 0  9999,2 54002  53.2170   3.3302 0001113  95.2815 264.8304 15.08846342 51125,6917.861,95.437,540.496,538.956,0.0
54002.0,STARLINK-5109,PAYLOAD,2023-09-04 10:36:22,15.08825549,0.0001253,53.2175,1.5454,97.8228,262.2906,-0.0002621,-4.455e-05,0.0,0 STARLINK-5109,1 54002U 22125AQ  23247.44192437 -.00004455  00000-0 -26210-3 0  9999,2 54002  53.2175   1.5454 0001253  97.8228 262.2906 15.08825549 51136,6917.925,95.438,540.656,538.923,0.0
54002.0,STARLINK-5109,PAYLOAD,2023-09-04 16:57:54,15.08830692,0.0001371,53.2171,0.3556,100.0969,260.0178,-0.00014523,-2.598e-05,0.0,0 STARLINK-5109,1 54002U 22125AQ  23247.70688344 -.00002598  00000-0 -14523-3 0  9995,2 54002  53.2171   0.3556 0001371 100.0969 260.0178 15.08830692 51224,6917.909,95.438,540.722,538.825,0.0
54002.0,STARLINK-5109,PAYLOAD,2023-09-05 10:27:09,15.08833586,0.000121,53.2177,357.0845,98.9872,261.1257,2.6487e-05,1.34e-06,0.0,0 STARLINK-5109,1 54002U 22125AQ  23248.43552688  .00000134  00000-0  26487-4 0  9992,2 54002  53.2177 357.0845 0001210  98.9872 261.1257 15.08833586 51284,6917.9,95.438,540.602,538.928,0.0
54002.0,STARLINK-5109,PAYLOAD,2023-09-06 02:21:00,15.0884486,0.0001262,53.2174,354.1109,99.671,260.4425,0.00057222,8.832e-05,0.0,0 STARLINK-5109,1 54002U 22125AQ  23249.09792655  .00008832  00000-0  57222-3 0  9998,2 54002  53.2174 354.1109 0001262  99.6710 260.4425 15.08844860 51431,6917.866,95.437,540.604,538.857,0.0
54002.0,STARLINK-5109,PAYLOAD,2023-09-06 08:42:33,15.08847863,0.0001259,53.2175,352.9216,98.6789,261.4346,0.00053589,8.253e-05,0.0,0 STARLINK-5109,1 54002U 22125AQ  23249.36288621  .00008253  00000-0  53589-3 0  9990,2 54002  53.2175 352.9216 0001259  98.6789 261.4346 15.08847863 51426,6917.856,95.437,540.592,538.85,0.0
54002.0,STARLINK-5109,PAYLOAD,2023-09-07 08:33:20,15.08841278,0.0001277,53.2175,348.4611,103.3011,256.8124,1.0164e-05,-1.26e-06,0.0,0 STARLINK-5109,1 54002U 22125AQ  23250.35648289 -.00000126  00000-0  10164-4 0  9996,2 54002  53.2175 348.4611 0001277 103.3011 256.8124 15.08841278 51625,6917.876,95.437,540.625,538.858,0.0
54002.0,STARLINK-5109,PAYLOAD,2023-09-07 16:30:15,15.08846334,0.0001309,53.2176,346.9725,121.7928,238.3191,0.00014135,1.963e-05,0.0,0 STARLINK-5109,1 54002U 22125AQ  23250.68767977  .00001963  00000-0  14135-3 0  9998,2 54002  53.2176 346.9725 0001309 121.7928 238.3191 15.08846334 51629,6917.861,95.437,540.632,538.82,0.0
54002.0,STARLINK-5109,PAYLOAD,2023-09-08 09:59:30,15.08840949,0.0001904,53.2161,343.6984,129.9159,230.2,0.00018638,2.679e-05,0.0,0 STARLINK-5109,1 54002U 22125AQ  23251.41632345  .00002679  00000-0  18638-3 0  9997,2 54002  53.2161 343.6984 0001904 129.9159 230.2000 15.08840949 51784,6917.877,95.437,541.06,538.425,0.0
54002.0,STARLINK-5109,PAYLOAD,2023-09-08 11:34:53,15.08837856,0.0001324,53.217,343.4067,88.1406,271.9738,6.1743e-05,6.95e-06,0.0,0 STARLINK-5109,1 54002U 22125AQ  23251.48256694  .00000695  00000-0  61743-4 0  9995,2 54002  53.2170 343.4067 0001324  88.1406 271.9738 15.08837856 51740,6917.887,95.438,540.668,538.836,0.0
54002.0,STARLINK-5109,PAYLOAD,2023-09-08 16:21:02,15.08843359,0.0001378,53.2173,342.5123,113.2252,246.8886,0.00018181,2.607e-05,0.0,0 STARLINK-5109,1 54002U 22125AQ  23251.68128450  .00002607  00000-0  18181-3 0  9997,2 54002  53.2173 342.5123 0001378 113.2252 246.8886 15.08843359 51777,6917.87,95.437,540.688,538.782,0.0
54002.0,STARLINK-5109,PAYLOAD,2023-09-09 01:53:22,15.08834407,0.0001276,53.2179,340.7293,110.1692,249.9438,0.00012544,1.709e-05,0.0,0 STARLINK-5109,1 54002U 22125AQ  23252.07872917  .00001709  00000-0  12544-3 0  9994,2 54002  53.2179 340.7293 0001276 110.1692 249.9438 15.08834407 51885,6917.897,95.438,540.645,538.88,0.0
54002.0,STARLINK-5109,PAYLOAD,2023-09-09 13:01:04,15.08846973,0.0001336,53.2174,338.649,95.0136,265.1008,0.00053616,8.257e-05,0.0,0 STARLINK-5109,1 54002U 22125AQ  23252.54240840  .00008257  00000-0  53616-3 0  9990,2 54002  53.2174 338.6490 0001336  95.0136 265.1008 15.08846973 51903,6917.859,95.437,540.648,538.8,0.0
54002.0,STARLINK-5109,PAYLOAD,2023-09-09 16:11:50,15.08851467,0.000134,53.2174,338.0538,98.5073,261.6071,0.0007548,0.00011749,0.0,0 STARLINK-5109,1 54002U 22125AQ  23252.67488796  .00011749  00000-0  75480-3 0  9991,2 54002  53.2174 338.0538 0001340  98.5073 261.6071 15.08851467 51975,6917.845,95.437,540.637,538.783,0.0
54002.0,STARLINK-5109,PAYLOAD,2023-09-10 00:08:46,15.08847793,0.0001366,53.2176,336.568,86.7353,273.3796,0.0004782,7.332e-05,0.0,0 STARLINK-5109,1 54002U 22125AQ  23253.00608875  .00007332  00000-0  47820-3 0  9991,2 54002  53.2176 336.5680 0001366  86.7353 273.3796 15.08847793 52024,6917.857,95.437,540.667,538.777,0.0
